[
    {
        "Altitude(m)": 604983.0528330029,
        "Argument of Periapsis(deg)": 0.0,
        "Eccentricity": 0.0,
        "Inclination(deg)": 60.0,
        "Latitude(deg)": -0.09253413557570055,
        "Longitude(deg)": 105.0839163563585,
        "Mean Anomaly(deg)": 180.0,
        "RAAN(deg)": 25.0,
        "Satellite Name": "Test1 121",
        "Satellite Number": 121,
        "Semi-Major Axis(m)": 6980739.136638005,
        "Time(s)": 0
    },
    {
        "Altitude(m)": 605055.3314994243,
        "Argument of Periapsis(deg)": 0.00010418945913296404,
        "Eccentricity": 0.0,
        "Inclination(deg)": 60.0,
        "Latitude(deg)": -0.6329441418671699,
        "Longitude(deg)": 105.35204100162719,
        "Mean Anomaly(deg)": 180.62010614546185,
        "RAAN(deg)": 24.99957995086026,
        "Satellite Name": "Test1 121",
        "Satellite Number": 121,
        "Semi-Major Axis(m)": 6980739.136638005,
        "Time(s)": 10
    }
]